NORAD_CAT_ID,OBJECT_NAME,OBJECT_TYPE,EPOCH,MEAN_MOTION,ECCENTRICITY,INCLINATION,RA_OF_ASC_NODE,ARG_OF_PERICENTER,MEAN_ANOMALY,BSTAR,MEAN_MOTION_DOT,MEAN_MOTION_DDOT,TLE_LINE0,TLE_LINE1,TLE_LINE2,SEMIMAJOR_AXIS,PERIOD,APOGEE,PERIGEE,DECAYED
53618.0,STARLINK-4604,PAYLOAD,2023-02-28 06:12:13,15.08850513,0.0001563,53.2156,156.5127,100.1045,260.0124,5.592e-05,6.02e-06,0.0,0 STARLINK-4604,1 53618U 22104AG  23059.25849088  .00000602  00000-0  55920-4 0  9998,2 53618  53.2156 156.5127 0001563 100.1045 260.0124 15.08850513 28179,6917.848,95.437,540.795,538.632,0.0
53618.0,STARLINK-4604,PAYLOAD,2023-02-28 12:33:45,15.08856831,0.0001434,53.2156,155.3238,106.3792,253.7358,2.8296e-06,-2.43e-06,0.0,0 STARLINK-4604,1 53618U 22104AG  23059.52344331 -.00000243  00000-0  28296-5 0  9998,2 53618  53.2156 155.3238 0001434 106.3792 253.7358 15.08856831 28215,6917.829,95.436,540.686,538.702,0.0
53618.0,STARLINK-4604,PAYLOAD,2023-02-28 14:09:08,15.08859291,0.0001593,53.2157,155.0263,98.8518,261.2654,7.1058e-05,8.44e-06,0.0,0 STARLINK-4604,1 53618U 22104AG  23059.58968262  .00000844  00000-0  71058-4 0  9998,2 53618  53.2157 155.0263 0001593  98.8518 261.2654 15.08859291 28225,6917.821,95.436,540.788,538.584,0.0
53618.0,STARLINK-4604,PAYLOAD,2023-03-01 04:27:38,15.08818284,0.0001192,53.2163,152.349,99.4595,260.6532,-0.00019218,-3.343e-05,0.0,0 STARLINK-4604,1 53618U 22104AG  23060.18586306 -.00003343  00000-0 -19218-3 0  9999,2 53618  53.2163 152.3490 0001192  99.4595 260.6532 15.08818284 28316,6917.947,95.439,540.636,538.987,0.0
53618.0,STARLINK-4604,PAYLOAD,2023-03-01 10:49:10,15.08825421,0.0001157,53.2161,151.159,105.5453,254.5667,-0.00017083,-3.004e-05,0.0,0 STARLINK-4604,1 53618U 22104AG  23060.45081914 -.00003004  00000-0 -17083-3 0  9996,2 53618  53.2161 151.1590 0001157 105.5453 254.5667 15.08825421 28351,6917.925,95.438,540.59,538.99,0.0
53618.0,STARLINK-4604,PAYLOAD,2023-03-01 12:24:33,15.08826272,0.0001136,53.2162,150.8613,113.0557,247.0555,-0.00014963,-2.667e-05,0.0,0 STARLINK-4604,1 53618U 22104AG  23060.51705896 -.00002667  00000-0 -14963-3 0  9993,2 53618  53.2162 150.8613 0001136 113.0557 247.0555 15.08826272 28369,6917.922,95.438,540.573,539.001,0.0
53618.0,STARLINK-4604,PAYLOAD,2023-03-02 13:50:44,15.08844008,0.0001137,53.2162,146.1035,98.3506,261.7615,0.0010875,0.00017064,0.0,0 STARLINK-4604,1 53618U 22104AG  23061.57690939  .00017064  00000-0  10875-2 0  9993,2 53618  53.2162 146.1035 0001137  98.3506 261.7615 15.08844008 28520,6917.868,95.437,540.52,538.947,0.0
53618.0,STARLINK-4604,PAYLOAD,2023-03-03 08:55:22,15.08866376,0.0001195,53.2167,142.5357,94.2728,265.8401,0.0010936,0.00017172,0.0,0 STARLINK-4604,1 53618U 22104AG  23062.37178371  .00017172  00000-0  10936-2 0  9991,2 53618  53.2167 142.5357 0001195  94.2728 265.8401 15.08866376 28640,6917.8,95.436,540.491,538.838,0.0
53618.0,STARLINK-4604,PAYLOAD,2023-03-03 10:30:45,15.08872101,0.0001176,53.2163,142.2375,91.5002,268.6125,0.0012245,0.00019271,0.0,0 STARLINK-4604,1 53618U 22104AG  23062.43802174  .00019271  00000-0  12245-2 0  9990,2 53618  53.2163 142.2375 0001176  91.5002 268.6125 15.08872101 28655,6917.782,95.436,540.461,538.834,0.0
53618.0,STARLINK-4604,PAYLOAD,2023-03-03 21:38:26,15.08865379,0.0001265,53.2175,140.1566,92.1221,267.9916,0.00062534,9.685e-05,0.0,0 STARLINK-4604,1 53618U 22104AG  23062.90169735  .00009685  00000-0  62534-3 0  9996,2 53618  53.2175 140.1566 0001265  92.1221 267.9916 15.08865379 28723,6917.803,95.436,540.543,538.793,0.0
53618.0,STARLINK-4604,PAYLOAD,2023-03-04 05:35:22,15.08848858,0.0001704,53.2175,138.6706,102.3674,257.7509,0.00016545,2.347e-05,0.0,0 STARLINK-4604,1 53618U 22104AG  23063.23289962  .00002347  00000-0  16545-3 0  9997,2 53618  53.2175 138.6706 0001704 102.3674 257.7509 15.08848858 28778,6917.853,95.437,540.897,538.54,0.0
53618.0,STARLINK-4604,PAYLOAD,2023-03-04 10:21:32,15.08854575,0.0001465,53.2169,137.7788,104.4306,255.6848,0.0024771,0.00039371,0.0,0 STARLINK-4604,1 53618U 22104AG  23063.43162062  .00039371  00000-0  24771-2 0  9996,2 53618  53.2169 137.7788 0001465 104.4306 255.6848 15.08854575 28800,6917.836,95.437,540.714,538.687,0.0
53618.0,STARLINK-4604,PAYLOAD,2023-03-04 21:29:13,15.08844467,0.0001429,53.2175,135.693,63.6677,296.4462,0.0005832,9.007e-05,0.0,0 STARLINK-4604,1 53618U 22104AG  23063.89530021  .00009007  00000-0  58320-3 0  9991,2 53618  53.2175 135.6930 0001429  63.6677 296.4462 15.08844467 28871,6917.867,95.437,540.72,538.743,0.0
53618.0,STARLINK-4604,PAYLOAD,2023-03-05 08:36:56,15.08832006,0.0002216,53.2167,133.6169,82.8359,277.2885,-0.00013418,-2.423e-05,0.0,0 STARLINK-4604,1 53618U 22104AG  23064.35898836 -.00002423  00000-0 -13418-3 0  9990,2 53618  53.2167 133.6169 0002216  82.8359 277.2885 15.08832006 28949,6917.905,95.438,541.303,538.237,0.0
53618.0,STARLINK-4604,PAYLOAD,2023-03-05 21:20:01,15.08841857,0.0001229,53.2174,131.2364,103.0394,257.0735,0.00013181,1.811e-05,0.0,0 STARLINK-4604,1 53618U 22104AG  23064.88890348  .00001811  00000-0  13181-3 0  9993,2 53618  53.2174 131.2364 0001229 103.0394 257.0735 15.08841857 29020,6917.875,95.437,540.59,538.89,0.0
53618.0,STARLINK-4604,PAYLOAD,2023-03-06 05:16:57,15.08846001,0.0001713,53.219,129.7539,109.1059,251.0119,0.00043012,6.565e-05,0.0,0 STARLINK-4604,1 53618U 22104AG  23065.22010645  .00006565  00000-0  43012-3 0  9993,2 53618  53.2190 129.7539 0001713 109.1059 251.0119 15.08846001 29078,6917.862,95.437,540.912,538.542,0.0
53618.0,STARLINK-4604,PAYLOAD,2023-03-06 11:38:29,15.08867238,0.0001671,53.2169,128.5622,105.6875,254.4302,0.0013194,0.00020788,0.0,0 STARLINK-4604,1 53618U 22104AG  23065.48506258  .00020788  00000-0  13194-2 0  9991,2 53618  53.2169 128.5622 0001671 105.6875 254.4302 15.08867238 29115,6917.797,95.436,540.818,538.506,0.0
53618.0,STARLINK-4604,PAYLOAD,2023-03-06 21:10:48,15.08860039,0.0001905,53.2166,126.7762,81.2177,278.903,0.00025143,3.718e-05,0.0,0 STARLINK-4604,1 53618U 22104AG  23065.88250282  .00003718  00000-0  25143-3 0  9990,2 53618  53.2166 126.7762 0001905  81.2177 278.9030 15.08860039 29178,6917.819,95.436,541.002,538.366,0.0
53618.0,STARLINK-4604,PAYLOAD,2023-03-07 05:07:44,15.08831616,0.0001144,53.2153,125.2904,87.2284,272.8839,-0.00032875,-5.515e-05,0.0,0 STARLINK-4604,1 53618U 22104AG  23066.21370535 -.00005515  00000-0 -32875-3 0  9991,2 53618  53.2153 125.2904 0001144  87.2284 272.8839 15.08831616 29221,6917.906,95.438,540.562,538.98,0.0
53618.0,STARLINK-4604,PAYLOAD,2023-03-07 09:53:53,15.08843487,0.00012,53.216,124.3983,86.5332,273.5797,0.00043669,6.67e-05,0.0,0 STARLINK-4604,1 53618U 22104AG  23066.41242521  .00006670  00000-0  43669-3 0  9990,2 53618  53.2160 124.3983 0001200  86.5332 273.5797 15.08843487 29258,6917.87,95.437,540.565,538.905,0.0
53618.0,STARLINK-4604,PAYLOAD,2023-03-07 21:01:36,15.08847918,0.0001098,53.2156,122.3165,94.8713,265.2405,0.001866,0.00029541,0.0,0 STARLINK-4604,1 53618U 22104AG  23066.87611113  .00029541  00000-0  18660-2 0  9991,2 53618  53.2156 122.3165 0001098  94.8713 265.2405 15.08847918 29328,6917.856,95.437,540.481,538.962,0.0
53618.0,STARLINK-4604,PAYLOAD,2023-03-08 03:23:08,15.08855988,0.0002146,53.2153,121.127,89.7552,270.3686,0.0021329,0.00033836,0.0,0 STARLINK-4604,1 53618U 22104AG  23067.14107465  .00033836  00000-0  21329-2 0  9990,2 53618  53.2153 121.1270 0002146  89.7552 270.3686 15.08855988 29366,6917.832,95.437,541.181,538.212,0.0
53618.0,STARLINK-4604,PAYLOAD,2023-03-08 09:44:41,15.0885045,8.88e-05,53.2154,119.9373,105.0858,255.0233,0.0021675,0.00034386,0.0,0 STARLINK-4604,1 53618U 22104AG  23067.40603211  .00034386  00000-0  21675-2 0  9994,2 53618  53.2154 119.9373 0000888 105.0858 255.0233 15.08850450 29400,6917.848,95.437,540.328,539.099,0.0
53618.0,STARLINK-4604,PAYLOAD,2023-03-08 20:52:23,15.08869217,0.0001275,53.2153,117.8555,74.5649,285.5483,0.0030151,0.00048063,0.0,0 STARLINK-4604,1 53618U 22104AG  23067.86971518  .00048063  00000-0  30151-2 0  9998,2 53618  53.2153 117.8555 0001275  74.5649 285.5483 15.08869217 29470,6917.791,95.436,540.538,538.774,0.0
53618.0,STARLINK-4604,PAYLOAD,2023-03-09 06:24:41,15.08857489,9.2e-05,53.2155,116.071,79.8309,280.2787,0.0019555,0.00030986,0.0,0 STARLINK-4604,1 53618U 22104AG  23068.26715252  .00030986  00000-0  19555-2 0  9994,2 53618  53.2155 116.0710 0000920  79.8309 280.2787 15.08857489 29537,6917.827,95.436,540.328,539.055,0.0
53618.0,STARLINK-4604,PAYLOAD,2023-03-09 09:35:28,15.0886567,9.89e-05,53.2155,115.4762,80.3555,279.7549,0.0027538,0.00043842,0.0,0 STARLINK-4604,1 53618U 22104AG  23068.39963195  .00043842  00000-0  27538-2 0  9994,2 53618  53.2155 115.4762 0000989  80.3555 279.7549 15.08865670 29554,6917.802,95.436,540.351,538.983,0.0
53618.0,STARLINK-4604,PAYLOAD,2023-03-10 09:26:14,15.08868951,0.0001157,53.2159,111.0159,101.2901,258.8221,0.0015455,0.00024414,0.0,0 STARLINK-4604,1 53618U 22104AG  23069.39322692  .00024414  00000-0  15455-2 0  9995,2 53618  53.2159 111.0159 0001157 101.2901 258.8221 15.08868951 29703,6917.792,95.436,540.457,538.857,0.0
53618.0,STARLINK-4604,PAYLOAD,2023-03-10 12:37:00,15.08867362,0.0001135,53.2153,110.4217,98.6137,261.4983,0.00099669,0.00015622,0.0,0 STARLINK-4604,1 53618U 22104AG  23069.52570436  .00015622  00000-0  99669-3 0  9992,2 53618  53.2153 110.4217 0001135  98.6137 261.4983 15.08867362 29723,6917.797,95.436,540.447,538.877,0.0
53618.0,STARLINK-4604,PAYLOAD,2023-03-11 02:55:29,15.08832049,0.0001315,53.2168,107.7436,90.4377,269.6766,0.00022834,3.347e-05,0.0,0 STARLINK-4604,1 53618U 22104AG  23070.12187264  .00003347  00000-0  22834-3 0  9994,2 53618  53.2168 107.7436 0001315  90.4377 269.6766 15.08832049 29810,6917.905,95.438,540.679,538.86,0.0
53618.0,STARLINK-4604,PAYLOAD,2023-03-11 12:27:48,15.08832309,0.0001298,53.2166,105.9579,97.5492,262.5647,0.00062649,9.695e-05,0.0,0 STARLINK-4604,1 53618U 22104AG  23070.51931670  .00009695  00000-0  62649-3 0  9995,2 53618  53.2166 105.9579 0001298  97.5492 262.5647 15.08832309 29877,6917.904,95.438,540.667,538.871,0.0
